0 N-1 R/B
1 08352U 75082B   13282.78825076 -.00000082  00000-0  59140-4 0  2749
2 08352 046.9883 047.0740 0084459 088.7259 025.8798 13.60682056893117
0 N-1 R/B
1 08352U 75082B   13285.50143318 -.00000102  00000-0  32879-4 0  2758
2 08352 046.9886 036.1654 0084494 099.3819 356.2206 13.60682038893487
0 N-1 R/B
1 08352U 75082B   13287.78705544 -.00000095  00000-0  41367-4 0  2769
2 08352 046.9887 026.9760 0084530 108.3502 032.1956 13.60681892893797
0 N-1 R/B
1 08352U 75082B   13290.49893381 -.00000089  00000-0  49179-4 0  2771
2 08352 046.9886 016.0728 0084581 119.0045 356.1458 13.60682016894164
0 N-1 R/B
1 08352U 75082B   13292.70672001 -.00000055  00000-0  93218-4 0  2788
2 08352 046.9885 007.1962 0084649 127.6580 010.8590 13.60682693894463
0 N-1 R/B
1 08352U 75082B   13295.18018233 -.00000036  00000-0  11727-3 0  2798
2 08352 046.9883 357.2514 0084696 137.3454 246.9838 13.60683304894808
